H1 CPF  1  DLR 2021 07 25 10  7062 technosat            
H2  1704205 6203    42829 2021 07 25 00 00 00 2021 08 01 00 00 00    60 1 1  0 0 0
H9
10 0 59420  50400.000000  0      -1012799.889        519296.131       6867364.314
10 0 59420  50460.000000  0      -1083658.026        967796.501       6808497.129
10 0 59420  50520.000000  0      -1146044.150       1412804.958       6720754.983
10 0 59420  50580.000000  0      -1199735.633       1852373.786       6604515.331
10 0 59420  50640.000000  0      -1244563.369       2284576.998       6460275.661
10 0 59420  50700.000000  0      -1280412.232       2707518.764       6288651.407
10 0 59420  50760.000000  0      -1307221.265       3119341.778       6090373.386
10 0 59420  50820.000000  0      -1324983.557       3518235.465       5866284.723
10 0 59420  50880.000000  0      -1333745.784       3902443.953       5617337.350
10 0 59420  50940.000000  0      -1333607.488       4270273.906       5344588.139
10 0 59420  51000.000000  0      -1324720.118       4620102.136       5049194.497
10 0 59420  51060.000000  0      -1307285.778       4950382.926       4732409.538
10 0 59420  51120.000000  0      -1281555.664       5259655.034       4395576.801
10 0 59420  51180.000000  0      -1247828.196       5546548.279       4040124.559
10 0 59420  51240.000000  0      -1206446.959       5809789.694       3667559.863
10 0 59420  51300.000000  0      -1157798.488       6048209.420       3279462.280
10 0 59420  51360.000000  0      -1102309.789       6260746.213       2877477.150
10 0 59420  51420.000000  0      -1040445.526       6446452.383       2463308.454
10 0 59420  51480.000000  0       -972704.963       6604498.113       2038711.467
10 0 59420  51540.000000  0       -899618.810       6734175.268       1605485.237
10 0 59420  51600.000000  0       -821745.884       6834900.668       1165464.829
10 0 59420  51660.000000  0       -739669.607       6906218.754        720513.427
10 0 59420  51720.000000  0       -653994.381       6947803.708        272514.327
10 0 59420  51780.000000  0       -565341.844       6959460.980       -176637.214
10 0 59420  51840.000000  0       -474347.058       6941128.156       -625042.234
10 0 59420  51900.000000  0       -381654.621       6892875.134      -1070806.328
10 0 59420  51960.000000  0       -287914.759       6814903.606      -1512047.815
10 0 59420  52020.000000  0       -193779.439       6707545.936      -1946905.757
10 0 59420  52080.000000  0        -99898.487       6571263.472      -2373547.829
10 0 59420  52140.000000  0         -6915.765       6406644.310      -2790178.034
10 0 59420  52200.000000  0         84534.628       6214400.497      -3195044.247
10 0 59420  52260.000000  0        173832.078       5995364.656      -3586445.533
10 0 59420  52320.000000  0        260373.083       5750486.089      -3962739.193
10 0 59420  52380.000000  0        343574.767       5480826.371      -4322347.526
10 0 59420  52440.000000  0        422878.247       5187554.448      -4663764.264
10 0 59420  52500.000000  0        497751.854       4871941.323      -4985560.640
10 0 59420  52560.000000  0        567694.191       4535354.330      -5286391.121
10 0 59420  52620.000000  0        632236.989       4179251.008      -5564998.758
10 0 59420  52680.000000  0        690947.756       3805172.643      -5820220.146
10 0 59420  52740.000000  0        743432.202       3414737.461      -6050989.979
10 0 59420  52800.000000  0        789336.458       3009633.568      -6256345.160
10 0 59420  52860.000000  0        828349.083       2591611.642      -6435428.503
10 0 59420  52920.000000  0        860202.814       2162477.438      -6587491.961
10 0 59420  52980.000000  0        884676.083       1724084.154      -6711899.517
10 0 59420  53040.000000  0        901594.265       1278324.552      -6808129.674
10 0 59420  53100.000000  0        910830.675        827122.953      -6875777.438
10 0 59420  53160.000000  0        912307.350        372427.172      -6914555.938
10 0 59420  53220.000000  0        905995.542        -83799.712      -6924297.602
10 0 59420  53280.000000  0        891915.918       -539587.634      -6904954.825
10 0 59420  53340.000000  0        870138.520       -992967.763      -6856600.192
10 0 59420  53400.000000  0        840782.488      -1441980.753      -6779426.332
10 0 59420  53460.000000  0        804015.495      -1884684.931      -6673745.308
10 0 59420  53520.000000  0        760052.968      -2319164.451      -6539987.701
10 0 59420  53580.000000  0        709157.023      -2743537.514      -6378701.277
10 0 59420  53640.000000  0        651635.084      -3155964.550      -6190549.092
10 0 59420  53700.000000  0        587838.257      -3554656.201      -5976307.051
10 0 59420  53760.000000  0        518159.518      -3937881.095      -5736861.069
10 0 59420  53820.000000  0        443031.643      -4303973.447      -5473203.821
10 0 59420  53880.000000  0        362924.894      -4651340.485      -5186431.053
10 0 59420  53940.000000  0        278344.454      -4978469.626      -4877737.438
10 0 59420  54000.000000  0        189827.644      -5283935.388      -4548411.968
10 0 59420  54060.000000  0         97940.928      -5566405.986      -4199832.897
10 0 59420  54120.000000  0          3276.738      -5824649.542      -3833462.217
10 0 59420  54180.000000  0        -93549.896      -6057539.868      -3450839.751
10 0 59420  54240.000000  0       -191904.867      -6264061.821      -3053576.874
10 0 59420  54300.000000  0       -291138.672      -6443316.246      -2643349.871
10 0 59420  54360.000000  0       -390590.212      -6594524.410      -2221892.886
10 0 59420  54420.000000  0       -489590.701      -6717031.875      -1790990.514
10 0 59420  54480.000000  0       -587467.642      -6810311.748      -1352470.114
10 0 59420  54540.000000  0       -683548.866      -6873967.344       -908193.891
10 0 59420  54600.000000  0       -777166.601      -6907734.214       -460050.748
10 0 59420  54660.000000  0       -867661.541      -6911481.511         -9947.997
10 0 59420  54720.000000  0       -954386.898      -6885212.729        440197.041
10 0 59420  54780.000000  0      -1036712.428      -6829065.797        888465.538
10 0 59420  54840.000000  0      -1114028.367      -6743312.480       1332945.710
10 0 59420  54900.000000  0      -1185749.275      -6628357.094       1771741.364
10 0 59420  54960.000000  0      -1251317.729      -6484734.539       2202980.361
10 0 59420  55020.000000  0      -1310207.890      -6313107.679       2624822.952
10 0 59420  55080.000000  0      -1361928.892      -6114264.111       3035469.970
10 0 59420  55140.000000  0      -1406027.982      -5889112.273       3433170.829
10 0 59420  55200.000000  0      -1442093.465      -5638676.938       3816231.183
10 0 59420  55260.000000  0      -1469757.436      -5364094.187       4183020.282
10 0 59420  55320.000000  0      -1488698.259      -5066605.922       4531977.990
10 0 59420  55380.000000  0      -1498642.791      -4747553.944       4861621.503
10 0 59420  55440.000000  0      -1499368.358      -4408373.567       5170551.718
10 0 59420  55500.000000  0      -1490704.431      -4050586.761       5457459.223
10 0 59420  55560.000000  0      -1472534.010      -3675794.875       5721129.779
10 0 59420  55620.000000  0      -1444794.680      -3285671.074       5960449.288
10 0 59420  55680.000000  0      -1407479.354      -2881952.560       6174408.284
10 0 59420  55740.000000  0      -1360636.716      -2466432.594       6362105.946
10 0 59420  55800.000000  0      -1304371.390      -2040952.380       6522753.685
10 0 59420  55860.000000  0      -1238843.817      -1607392.739       6655678.299
10 0 59420  55920.000000  0      -1164269.847      -1167665.605       6760324.607
10 0 59420  55980.000000  0      -1080920.048       -723705.440       6836257.527
10 0 59420  56040.000000  0       -989118.722       -277460.670       6883163.651
10 0 59420  56100.000000  0       -889242.600        169114.872       6900852.397
10 0 59420  56160.000000  0       -781719.246        614070.553       6889256.704
10 0 59420  56220.000000  0       -667025.169       1055467.511       6848433.150
10 0 59420  56280.000000  0       -545683.670       1491387.096       6778561.593
10 0 59420  56340.000000  0       -418262.426       1919939.223       6679944.333
10 0 59420  56400.000000  0       -285370.813       2339270.579       6553004.760
10 0 59420  56460.000000  0       -147657.007       2747572.591       6398285.528
10 0 59420  56520.000000  0         -5804.862       3143089.244       6216446.321
10 0 59420  56580.000000  0        139469.417       3524124.707       6008261.091
10 0 59420  56640.000000  0        287420.807       3889050.654       5774614.827
10 0 59420  56700.000000  0        437279.211       4236313.278       5516499.872
10 0 59420  56760.000000  0        588253.363       4564439.993       5235011.856
10 0 59420  56820.000000  0        739534.928       4872045.865       4931345.148
10 0 59420  56880.000000  0        890302.697       5157839.617       4606787.779
10 0 59420  56940.000000  0       1039726.826       5420629.118       4262716.026
10 0 59420  57000.000000  0       1186973.162       5659326.432       3900588.684
10 0 59420  57060.000000  0       1331207.707       5872952.516       3521941.206
10 0 59420  57120.000000  0       1471601.397       6060641.816       3128379.204
10 0 59420  57180.000000  0       1607334.652       6221645.838       2721571.169
10 0 59420  57240.000000  0       1737601.688       6355336.077       2303241.430
10 0 59420  57300.000000  0       1861615.078       6461206.709       1875162.822
10 0 59420  57360.000000  0       1978610.223       6538876.560       1439148.932
10 0 59420  57420.000000  0       2087849.679       6588090.405        997046.259
10 0 59420  57480.000000  0       2188627.374       6608719.707        550726.260
10 0 59420  57540.000000  0       2280272.670       6600762.785        102077.294
99
